satNo,name,line1,line2,inclination,apogee,raan,argument_of_perigee,eccentricity,mean_motion,hdbscan_labels
55587,STARLINK-5727,1 55587U 23020U   26026.83457820  .00000356  00000-0  41449-4 0  9990,2 55587  43.0025 231.9686 0001277 269.4859  90.5837 15.02544978162625,43.0025,567.0747782338467,231.9686,269.4859,0.0001277,15.02544978,1171
55588,STARLINK-5728,1 55588U 23020V   26027.28770749  .00001623  00000-0  13512-3 0  9996,2 55588  43.0042 229.4105 0001630 268.5661  91.4995 15.02550786162693,43.0042,567.3017812795304,229.4105,268.5661,0.000163,15.02550786,797
55589,STARLINK-5697,1 55589U 23020W   26026.82792720  .00000268  00000-0  34888-4 0  9993,2 55589  43.0022 231.9843 0001071 266.7661  93.3059 15.02542247162626,43.0022,566.9402789992979,231.9843,266.7661,0.0001071,15.02542247,1171
55590,STARLINK-5762,1 55590U 23020X   26026.61628632 -.00000446  00000-0 -17939-4 0  9990,2 55590  43.0034 232.9748 0001206 275.9387  84.1318 15.02547186162592,43.0034,567.0187272173893,232.9748,275.9387,0.0001206,15.02547186,829
55591,STARLINK-5760,1 55591U 23020Y   26025.96149994 -.00000490  00000-0 -21233-4 0  9998,2 55591  43.0039 236.6644 0000998 305.1493  54.9256 15.02536393162498,43.0039,566.9076578231836,236.6644,305.1493,9.98e-05,15.02536393,656
55592,STARLINK-5759,1 55592U 23020Z   26027.27662487  .00000330  00000-0  39466-4 0  9990,2 55592  43.0013 229.3300 0001219 260.9992  99.0712 15.02545752162696,43.0013,567.0321598978862,229.33,260.9992,0.0001219,15.02545752,797
55593,STARLINK-5703,1 55593U 23020AA  26026.88552471 -.00000584  00000-0 -28166-4 0  9996,2 55593  43.0019 231.5569 0001260 269.8552  90.2146 15.02544754162630,43.0019,567.063674565589,231.5569,269.8552,0.000126,15.02544754,1172
55594,STARLINK-5750,1 55594U 23020AB  26027.27329283 -.00000632  00000-0 -31699-4 0  9993,2 55594  43.0022 229.3096 0001298 267.5555  92.5139 15.02540397162696,43.0022,567.1034483900489,229.3096,267.5555,0.0001298,15.02540397,797
55596,STARLINK-5729,1 55596U 23020AD  26027.27107060  .00000116  00000-0  23664-4 0  9990,2 55596  43.0022 229.2872 0000942 271.5952  88.4783 15.02536360162694,43.0022,566.8689110010099,229.2872,271.5952,9.42e-05,15.0253636,797
55597,STARLINK-5743,1 55597U 23020AE  26026.59890667  .00001437  00000-0  12141-3 0  9991,2 55597  43.0027 220.7415 0001113 263.5703  96.5013 15.02544641162737,43.0027,566.9620457283827,220.7415,263.5703,0.0001113,15.02544641,1144
55598,STARLINK-5756,1 55598U 23020AF  26027.20718859  .00001443  00000-0  12186-3 0  9999,2 55598  43.0014 217.5315 0001395 273.9202  86.1481 15.02540339162822,43.0014,567.1709178073826,217.5315,273.9202,0.0001395,15.02540339,-1
55599,STARLINK-5761,1 55599U 23020AG  26026.93796361  .00001346  00000-0  11470-3 0  9990,2 55599  43.0020 218.9561 0001201 272.9375  87.1330 15.02537779162787,43.002,567.0442166742245,218.9561,272.9375,0.0001201,15.02537779,1246
55600,STARLINK-5755,1 55600U 23020AH  26026.59335373 -.00000282  00000-0 -58030-5 0  9992,2 55600  43.0016 220.6885 0000921 254.5542 105.5199 15.02539219162738,43.0016,566.8455420436841,220.6885,254.5542,9.21e-05,15.02539219,1144
55601,STARLINK-5744,1 55601U 23020AJ  26026.93535715 -.00000910  00000-0 -52299-4 0  9991,2 55601  43.0029 231.0693 0001112 275.3572  84.7143 15.02539500162643,43.0029,566.9771776782973,231.0693,275.3572,0.0001112,15.025395,-1
55602,STARLINK-5764,1 55602U 23020AK  26026.60335075  .00001991  00000-0  16249-3 0  9995,2 55602  43.0017 220.7459 0000847 256.7660 103.3088 15.02519660162732,43.0017,566.8544149218435,220.7459,256.766,8.47e-05,15.0251966,1144
55603,STARLINK-5735,1 55603U 23020AL  26026.92907995  .00000938  00000-0  84474-4 0  9993,2 55603  43.0025 218.9101 0000809 276.6983  83.3767 15.02536053162783,43.0025,566.7775910591492,218.9101,276.6983,8.09e-05,15.02536053,1246
55604,STARLINK-5748,1 55604U 23020AM  26026.76530640 -.00000053  00000-0  11177-4 0  9994,2 55604  43.0022 206.3879 0001332 273.4130  86.6560 15.02534991162916,43.0022,567.1436767521426,206.3879,273.413,0.0001332,15.02534991,1261
55605,STARLINK-5725,1 55605U 23020AN  26026.92463201  .00002214  00000-0  17881-3 0  9998,2 55605  43.0019 218.8695 0001057 271.4413  88.6309 15.02552318162784,43.0019,566.8995654615555,218.8695,271.4413,0.0001057,15.02552318,1246
55607,STARLINK-5700,1 55607U 23020AQ  26027.25037991  .00002209  00000-0  17859-3 0  9999,2 55607  43.0022 217.0188 0001225 264.5336  95.5367 15.02525288162835,43.0022,567.0993182224184,217.0188,264.5336,0.0001225,15.02525288,1107
55608,STARLINK-5726,1 55608U 23020AR  26027.24814566 -.00000500  00000-0 -21950-4 0  9992,2 55608  43.0029 217.0008 0001305 273.0776  86.9917 15.02540866162830,43.0029,567.10686066755,217.0008,273.0776,0.0001305,15.02540866,1107
55609,STARLINK-5719,1 55609U 23020AS  26027.25369600 -.00000872  00000-0 -49513-4 0  9995,2 55609  43.0035 217.0423 0001146 264.5544  95.5168 15.02539538162838,43.0035,567.0006472008033,217.0423,264.5544,0.0001146,15.02539538,1107
55610,STARLINK-5722,1 55610U 23020AT  26027.24036515  .00000589  00000-0  58650-4 0  9997,2 55610  43.0014 216.9436 0001016 260.1190  99.9537 15.02543031162835,43.0014,566.8997110319948,216.9436,260.119,0.0001016,15.02543031,1107
55611,STARLINK-5730,1 55611U 23020AU  26026.57337558  .00001187  00000-0  10295-3 0  9991,2 55611  43.0033 220.5399 0001219 272.7267  87.3435 15.02534991162737,43.0033,567.06528617022,220.5399,272.7267,0.0001219,15.02534991,1144
55612,STARLINK-5734,1 55612U 23020AV  26026.57226186  .00000717  00000-0  68144-4 0  9991,2 55612  43.0023 220.5302 0001028 271.8436  88.2288 15.02549395162737,43.0023,566.8884454600225,220.5302,271.8436,0.0001028,15.02549395,1144
55614,STARLINK-5714,1 55614U 23020AX  26027.17525536  .00000278  00000-0  35614-4 0  9999,2 55614  43.0030 204.2584 0001446 265.9885  94.0793 15.02542124162979,43.003,567.2008025448173,204.2584,265.9885,0.0001446,15.02542124,1110
55615,STARLINK-5712,1 55615U 23020AY  26026.83484646  .00000261  00000-0  34389-4 0  9998,2 55615  43.0027 219.0585 0001491 275.7051  84.3621 15.02544361162770,43.0027,567.2251334693274,219.0585,275.7051,0.0001491,15.02544361,1246
55616,STARLINK-5710,1 55616U 23020AZ  26027.22480541 -.00025132  00000-0 -18464-2 0  9993,2 55616  43.0017 216.8259 0001561 291.5080  68.5596 15.02649616162830,43.0017,566.9496898961812,216.8259,291.508,0.0001561,15.02649616,1108
55617,STARLINK-5721,1 55617U 23020BA  26026.89799235 -.00002253  00000-0 -15171-3 0  9991,2 55617  42.9997 218.6695 0001373 286.9900  73.0791 15.02552307162782,42.9997,567.1188137789303,218.6695,286.99,0.0001373,15.02552307,1202
55618,STARLINK-5717,1 55618U 23020BB  26026.89133814  .00000020  00000-0  16512-4 0  9996,2 55618  43.0020 218.6246 0001096 268.0412  92.0305 15.02543163162787,43.002,566.954802253344,218.6246,268.0412,0.0001096,15.02543163,1202
55619,STARLINK-5720,1 55619U 23020BC  26026.88801094 -.00000208  00000-0 -31910-6 0  9999,2 55619  43.0020 218.5981 0000886 262.6895  97.3847 15.02528477162784,43.002,566.8543287421688,218.5981,262.6895,8.86e-05,15.02528477,1202
55620,STARLINK-5718,1 55620U 23020BD  26025.55512957  .00001614  00000-0  13451-3 0  9998,2 55620  43.0023 225.7967 0001263 263.6868  96.3830 15.02539648162585,43.0023,567.0814738850361,225.7967,263.6868,0.0001263,15.02539648,-1
55621,STARLINK-5709,1 55621U 23020BE  26027.22816555  .00000375  00000-0  42807-4 0  9997,2 55621  43.0029 216.8516 0000916 265.0659  95.0078 15.02544992162837,43.0029,566.8243026190205,216.8516,265.0659,9.16e-05,15.02544992,1108
55622,STARLINK-5702,1 55622U 23020BF  26027.21484309 -.00000022  00000-0  13417-4 0  9990,2 55622  43.0033 216.7536 0001367 267.7228  92.3458 15.02534181162837,43.0033,567.1704505484197,216.7536,267.7228,0.0001367,15.02534181,1108
55623,STARLINK-5698,1 55623U 23020BG  26027.21039983 -.00015539  00000-0 -11355-2 0  9992,2 55623  43.0021 216.7176 0000923 265.1961  94.8776 15.02610388162832,43.0021,566.6278602661556,216.7176,265.1961,9.23e-05,15.02610388,1108
55628,STARLINK-5484,1 55628U 23021A   26027.14858903 -.00001083  00000-0 -82983-4 0  9997,2 55628  70.0007 309.2766 0003494 258.1924 101.8843 14.98322577162075,70.0007,581.6442514709681,309.2766,258.1924,0.0003494,14.98322577,23
55629,STARLINK-5497,1 55629U 23021B   26027.15276326  .00001767  00000-0  15582-3 0  9999,2 55629  70.0010 309.2971 0002459 272.7834  87.3043 14.98345133162073,70.001,580.8551347085722,309.2971,272.7834,0.0002459,14.98345133,-1
55630,STARLINK-5303,1 55630U 23021C   26027.14440598 -.00000724  00000-0 -52922-4 0  9998,2 55630  70.0018 309.2685 0002348 268.5353  91.5537 14.98329449162078,70.0018,580.8265005578594,309.2685,268.5353,0.0002348,14.98329449,23
55631,STARLINK-5558,1 55631U 23021D   26027.11936506  .00002082  00000-0  18221-3 0  9995,2 55631  70.0025 309.1783 0002918 265.2386  94.8440 14.98330301162076,70.0025,581.2200261408649,309.1783,265.2386,0.0002918,14.98330301,28
55632,STARLINK-5546,1 55632U 23021E   26027.13605900  .00000181  00000-0  22966-4 0  9999,2 55632  70.0009 309.2368 0002889 270.1444  89.9384 14.98337389162071,70.0009,581.1779452902293,309.2368,270.1444,0.0002889,14.98337389,29
55633,STARLINK-5498,1 55633U 23021F   26027.13188906  .00000515  00000-0  50968-4 0  9996,2 55633  70.0003 309.2200 0002658 272.4590  87.6265 14.98328334162075,70.0003,581.0454055565651,309.22,272.459,0.0002658,14.98328334,29
55634,STARLINK-5500,1 55634U 23021G   26027.13622947  .00000188  00000-0  23563-4 0  9992,2 55634  70.0024 309.2356 0002568 266.8992  93.1873 14.98327885162060,70.0024,580.9842426291285,309.2356,266.8992,0.0002568,14.98327885,29
55635,STARLINK-5495,1 55635U 23021H   26027.11497215 -.00001113  00000-0 -85539-4 0  9991,2 55635  70.0005 289.2957 0002692 265.6988  94.3863 14.98330693162562,70.0005,581.0617392492396,289.2957,265.6988,0.0002692,14.98330693,74
55636,STARLINK-5218,1 55636U 23021J   26027.12354425 -.00001870  00000-0 -14896-3 0  9995,2 55636  70.0019 309.1916 0002759 266.3022  93.7822 14.98325693162074,70.0019,581.1237719118782,309.1916,266.3022,0.0002759,14.98325693,28
